OCEANSAT-2              
1 35931U 09051A   26199.86789912  .00000004  00000+0  28236-4 0  9991
2 35931  98.2323 183.5563 0017574 142.9660 217.2723 13.99655981883765
WORLDVIEW-2 (WV-2)      
1 35946U 09055A   26199.82536079  .00000040  00000+0  27797-4 0  9992
2 35946  98.4754 272.8442 0005438 121.1463 239.0258 14.37907544880192
SMOS                    
1 36036U 09059A   26199.81026676  .00000097  00000+0  44804-4 0  9993
2 36036  98.4431  26.6818 0001189  97.5264 262.6059 14.39737112878003
YAOGAN-7                
1 36110U 09069A   26199.70409221  .00000173  00000+0  31237-4 0  9997
2 36110  98.0027  85.3706 0023320 299.5121  60.3764 14.78037245894285
TANDEM-X                
1 36605U 10030A   26199.41329616  .00000080  00000+0  70265-5 0  9995
2 36605  97.4455 206.6773 0001893  96.8961 263.2489 15.19148720891388
CARTOSAT-2B             
1 36795U 10035A   26199.87430564 -.00000183  00000+0 -17802-4 0  9998
2 36795  97.9931 250.2182 0012753  89.3486 270.9186 14.78651666864535
YAOGAN-10               
1 36834U 10038A   26199.88876336  .00000278  00000+0  38553-4 0  9996
2 36834  97.8966 223.0406 0001588  82.0630  40.8266 14.85433429861913
COSMO-SKYMED 4          
1 37216U 10060A   26199.83615972 -.00000009  00000+0  54499-5 0  9999
2 37216  97.8895  22.9780 0001511  85.1657 274.9728 14.82150131849258
RESOURCESAT-2           
1 37387U 11015A   26199.83168088  .00000025  00000+0  31720-4 0  9998
2 37387  98.7629 267.0522 0011769 160.9807 199.1811 14.21600063790672
HAIYANG-2A              
1 37781U 11043A   26199.86392119 -.00000246  00000+0 -21921-3 0  9992
2 37781  99.3402 201.8111 0001983  22.8859 337.2377 13.73204478751008
RASAT                   
1 37791U 11044D   26199.87747203  .00000229  00000+0  48163-4 0  9990
2 37791  98.0580 290.7912 0021963  91.7275  18.2218 14.68194863797837
SRMSAT                  
1 37841U 11058D   26199.48245728  .00000322  00000+0  30967-4 0  9990
2 37841  19.9704 230.0483 0011664 187.3521 320.5069 14.11581472762240
PLEIADES 1A             
1 38012U 11076F   26199.82963538  .00000129  00000+0  37681-4 0  9990
2 38012  98.1965 274.5056 0001625  77.4661  35.6940 14.58548006776602
ZIYUAN 1-02C (ZY 1-02C) 
1 38038U 11079A   26199.88032855  .00000174  00000+0  71461-4 0  9990
2 38038  98.4055 266.5246 0005836 202.4477 277.0928 14.38237348763761
ARIRANG-3 (KOMPSAT-3)   
1 38338U 12025B   26199.85263022  .00000168  00000+0  42647-4 0  9991
2 38338  98.1187 156.7699 0006000  28.9018 331.2514 14.62230673755974
EXACTVIEW-1 (ADS-1B)    
1 38709U 12039C   26199.76754568  .00000040  00000+0  36924-4 0  9998
2 38709  98.9809 317.8756 0011944  82.2216 278.0318 14.24992745727203
SPOT 6                  
1 38755U 12047A   26199.82348891 -.00000044  00000+0  33958-6 0  9994
2 38755  98.2102 266.7595 0001108  89.7528 270.3798 14.58539317737662
PLEIADES 1B             
1 39019U 12068A   26199.84209659  .00000012  00000+0  12509-4 0  9992
2 39019  98.1936 274.4559 0001525  77.6569 282.4801 14.58535067725462
GOKTURK 2               
1 39030U 12073A   26199.81696516  .00000050  00000+0  14304-4 0  9997
2 39030  97.6807  35.6613 0001009  99.8176 260.3148 14.75569555729170
LANDSAT 8               
1 39084U 13008A   26199.81891213  .00000147  00000+0  42833-4 0  9991
2 39084  98.2287 269.5761 0001350  91.5310 268.6043 14.57095670702503
SARAL                   
1 39086U 13009A   26199.81341587  .00000011  00000+0  20129-4 0  9992
2 39086  98.5558  25.9809 0001921 158.4364 201.6901 14.32896315700137
GAOFEN-1                
1 39150U 13018A   26199.84609677  .00000518  00000+0  81461-4 0  9992
2 39150  97.9081 271.2684 0017373 159.5872 200.6036 14.76522057712918
VNREDSAT 1              
1 39160U 13021B   26199.85146150  .00000077  00000+0  22802-4 0  9994
2 39160  97.9058 252.0500 0001555  80.8848 279.2531 14.64885388704921
ARIRANG-5 (KOMPSAT-5)   
1 39227U 13042A   26199.82403469  .00000112  00000+0  12369-4 0  9994
2 39227  97.6203  26.0800 0005021  48.2064 311.9590 15.04495755708615
SKYSAT-A                
1 39418U 13066C   26199.67071008  .00001389  00000+0  81642-4 0  9992
2 39418  97.3799 248.0646 0020793 200.9298 159.1085 15.13125428693247
DUBAISAT-2              
1 39419U 13066D   26199.87274862  .00001161  00000+0  74473-4 0  9990
2 39419  97.4581 189.1938 0009139 288.6106  71.4131 15.10386416691170
GPM-CORE                
1 39574U 14009C   26199.80028957  .00003200  00000+0  72726-4 0  9990
2 39574  64.9695 202.2033 0010904 263.1474  96.8426 15.45068236702691
SENTINEL-1A             
1 39634U 14016A   26199.84179260 -.00000191  00000+0 -30906-4 0  9995
2 39634  98.1730 206.9118 0001452  83.7987 276.3378 14.59172954654633
KAZEOSAT 1              
1 39731U 14024A   26199.86965153  .00000028  00000+0  21576-4 0  9998
2 39731  98.3193 271.5263 0001206  84.3541 275.7786 14.42037959643120
ALOS-2                  
1 39766U 14029A   26199.85898208  .00000518  00000+0  76232-4 0  9999
2 39766  97.9230 296.5702 0001594  90.6510 269.4884 14.79472275656268
KAZEOSAT 2              
1 40010U 14033A   26199.82167009 -.00000094  00000+0 -50978-5 0  9994
2 40010  97.5391  37.7601 0007668 206.1604 153.9225 14.85500924653651
