OBJECT_NAME,OBJECT_ID,EPOCH,MEAN_MOTION,ECCENTRICITY,INCLINATION,RA_OF_ASC_NODE,ARG_OF_PERICENTER,MEAN_ANOMALY,EPHEMERIS_TYPE,CLASSIFICATION_TYPE,NORAD_CAT_ID,ELEMENT_SET_NO,REV_AT_EPOCH,BSTAR,MEAN_MOTION_DOT,MEAN_MOTION_DDOT
OCEANSAT-2,2009-051A,2026-07-18T20:49:46.483968,13.99655981,.0017574,98.2323,183.5563,142.9660,217.2723,0,U,35931,999,88376,.28236E-4,.4E-7,0
WORLDVIEW-2 (WV-2),2009-055A,2026-07-18T19:48:31.172256,14.37907544,.0005438,98.4754,272.8442,121.1463,239.0258,0,U,35946,999,88019,.27797E-4,.4E-6,0
SMOS,2009-059A,2026-07-18T19:26:47.048064,14.39737112,.0001189,98.4431,26.6818,97.5264,262.6059,0,U,36036,999,87800,.44804E-4,.97E-6,0
YAOGAN-7,2009-069A,2026-07-18T16:53:53.566944,14.78037245,.002332,98.0027,85.3706,299.5121,60.3764,0,U,36110,999,89428,.31237E-4,.173E-5,0
TANDEM-X,2010-030A,2026-07-18T09:55:08.788224,15.19148720,.0001893,97.4455,206.6773,96.8961,263.2489,0,U,36605,999,89138,.7026452E-5,.8E-6,0
CARTOSAT-2B,2010-035A,2026-07-18T20:59:00.007296,14.78651666,.0012753,97.9931,250.2182,89.3486,270.9186,0,U,36795,999,86453,-.17802E-4,-.183E-5,0
YAOGAN-10,2010-038A,2026-07-18T21:19:49.154304,14.85433429,.0001588,97.8966,223.0406,82.0630,40.8266,0,U,36834,999,86191,.38553E-4,.278E-5,0
COSMO-SKYMED 4,2010-060A,2026-07-18T20:04:04.199808,14.82150131,.0001511,97.8895,22.9780,85.1657,274.9728,0,U,37216,999,84925,.54499E-5,-.9E-7,0
RESOURCESAT-2,2011-015A,2026-07-18T19:57:37.228032,14.21600063,.0011769,98.7629,267.0522,160.9807,199.1811,0,U,37387,999,79067,.3172E-4,.25E-6,0
HAIYANG-2A,2011-043A,2026-07-18T20:44:02.790816,13.73204478,.0001983,99.3402,201.8111,22.8859,337.2377,0,U,37781,999,75100,-.21921E-3,-.246E-5,0
RASAT,2011-044D,2026-07-18T21:03:33.583392,14.68194863,.0021963,98.0580,290.7912,91.7275,18.2218,0,U,37791,999,79783,.48163E-4,.229E-5,0
SRMSAT,2011-058D,2026-07-18T11:34:44.308992,14.11581472,.00116646,19.9704,230.0483,187.3521,320.5069,0,U,37841,999,76224,.30967464E-4,.322E-5,0
PLEIADES 1A,2011-076F,2026-07-18T19:54:40.496832,14.58548006,.0001625,98.1965,274.5056,77.4661,35.6940,0,U,38012,999,77660,.37681E-4,.129E-5,0
ZIYUAN 1-02C (ZY 1-02C),2011-079A,2026-07-18T21:07:40.386720,14.38237348,.0005836,98.4055,266.5246,202.4477,277.0928,0,U,38038,999,76376,.71461E-4,.174E-5,0
ARIRANG-3 (KOMPSAT-3),2012-025B,2026-07-18T20:27:47.251008,14.62230673,.0006,98.1187,156.7699,28.9018,331.2514,0,U,38338,999,75597,.42647E-4,.168E-5,0
EXACTVIEW-1 (ADS-1B),2012-039C,2026-07-18T18:25:15.946752,14.24992745,.0011944,98.9809,317.8756,82.2216,278.0318,0,U,38709,999,72720,.36924E-4,.4E-6,0
SPOT 6,2012-047A,2026-07-18T19:45:49.441824,14.58539317,.0001108,98.2102,266.7595,89.7528,270.3798,0,U,38755,999,73766,.33958E-6,-.44E-6,0
PLEIADES 1B,2012-068A,2026-07-18T20:12:37.145376,14.58535067,.0001525,98.1936,274.4559,77.6569,282.4801,0,U,39019,999,72546,.12509E-4,.12E-6,0
GOKTURK 2,2012-073A,2026-07-18T19:36:25.789824,14.75569555,.0001009,97.6807,35.6613,99.8176,260.3148,0,U,39030,999,72917,.14304E-4,.5E-6,0
LANDSAT 8,2013-008A,2026-07-18T19:39:14.008032,14.57095670,.000135,98.2287,269.5761,91.5310,268.6043,0,U,39084,999,70250,.42833E-4,.147E-5,0
SARAL,2013-009A,2026-07-18T19:31:19.131168,14.32896315,.0001921,98.5558,25.9809,158.4364,201.6901,0,U,39086,999,70013,.20129E-4,.11E-6,0
GAOFEN-1,2013-018A,2026-07-18T20:18:22.760928,14.76522057,.0017373,97.9081,271.2684,159.5872,200.6036,0,U,39150,999,71291,.81461E-4,.518E-5,0
VNREDSAT 1,2013-021B,2026-07-18T20:26:06.273600,14.64885388,.0001555,97.9058,252.0500,80.8848,279.2531,0,U,39160,999,70492,.22802E-4,.77E-6,0
ARIRANG-5 (KOMPSAT-5),2013-042A,2026-07-18T19:46:36.597216,15.04495755,.0005021,97.6203,26.0800,48.2064,311.9590,0,U,39227,999,70861,.12369E-4,.112E-5,0
SKYSAT-A,2013-066C,2026-07-18T16:05:49.350912,15.13125428,.0020793,97.3799,248.0646,200.9298,159.1085,0,U,39418,999,69324,.81642E-4,.1389E-4,0
DUBAISAT-2,2013-066D,2026-07-18T20:56:45.480768,15.10386416,.0009139,97.4581,189.1938,288.6106,71.4131,0,U,39419,999,69117,.74473E-4,.1161E-4,0
GPM-CORE,2014-009C,2026-07-18T19:12:25.018848,15.45068236,.0010904,64.9695,202.2033,263.1474,96.8426,0,U,39574,999,70269,.72726E-4,.32E-4,0
SENTINEL-1A,2014-016A,2026-07-18T20:12:10.880640,14.59172954,.0001452,98.1730,206.9118,83.7987,276.3378,0,U,39634,999,65463,-.30906E-4,-.191E-5,0
KAZEOSAT 1,2014-024A,2026-07-18T20:52:17.892192,14.42037959,.0001206,98.3193,271.5263,84.3541,275.7786,0,U,39731,999,64312,.21576E-4,.28E-6,0
ALOS-2,2014-029A,2026-07-18T20:36:56.051712,14.79472275,.0001594,97.9230,296.5702,90.6510,269.4884,0,U,39766,999,65626,.76232E-4,.518E-5,0
KAZEOSAT 2,2014-033A,2026-07-18T19:43:12.295776,14.85500924,.0007668,97.5391,37.7601,206.1604,153.9225,0,U,40010,999,65365,-.50978E-5,-.94E-6,0
